[{"OBJECT_NAME":"STARLINK-34521","OBJECT_ID":"2025-137U","EPOCH":"2026-03-16T20:35:05.210016","MEAN_MOTION":15.3020685,"ECCENTRICITY":7.03e-5,"INCLINATION":53.1566,"RA_OF_ASC_NODE":301.8468,"ARG_OF_PERICENTER":76.8276,"MEAN_ANOMALY":283.2803,"EPHEMERIS_TYPE":0,"CLASSIFICATION_TYPE":"U","NORAD_CAT_ID":64612,"ELEMENT_SET_NO":999,"REV_AT_EPOCH":4183,"BSTAR":0.00055874,"MEAN_MOTION_DOT":0.00016229,"MEAN_MOTION_DDOT":0},{"OBJECT_NAME":"STARLINK-34500","OBJECT_ID":"2025-137V","EPOCH":"2026-03-16T21:08:31.381728","MEAN_MOTION":15.30211827,"ECCENTRICITY":0.0001588,"INCLINATION":53.1592,"RA_OF_ASC_NODE":301.9908,"ARG_OF_PERICENTER":97.7315,"MEAN_ANOMALY":262.3866,"EPHEMERIS_TYPE":0,"CLASSIFICATION_TYPE":"U","NORAD_CAT_ID":64613,"ELEMENT_SET_NO":999,"REV_AT_EPOCH":4193,"BSTAR":0.00058193,"MEAN_MOTION_DOT":0.00016921,"MEAN_MOTION_DDOT":0},{"OBJECT_NAME":"STARLINK-34440","OBJECT_ID":"2025-137W","EPOCH":"2026-03-16T20:57:52.789824","MEAN_MOTION":15.30212672,"ECCENTRICITY":0.0001124,"INCLINATION":53.1601,"RA_OF_ASC_NODE":301.9437,"ARG_OF_PERICENTER":98.2304,"MEAN_ANOMALY":261.8824,"EPHEMERIS_TYPE":0,"CLASSIFICATION_TYPE":"U","NORAD_CAT_ID":64614,"ELEMENT_SET_NO":999,"REV_AT_EPOCH":4183,"BSTAR":0.00074051,"MEAN_MOTION_DOT":0.00021645,"MEAN_MOTION_DDOT":0},{"OBJECT_NAME":"STARLINK-34469","OBJECT_ID":"2025-137X","EPOCH":"2026-03-16T20:15:19.949760","MEAN_MOTION":15.30209934,"ECCENTRICITY":9.24e-5,"INCLINATION":53.157,"RA_OF_ASC_NODE":301.7633,"ARG_OF_PERICENTER":81.6143,"MEAN_ANOMALY":278.4962,"EPHEMERIS_TYPE":0,"CLASSIFICATION_TYPE":"U","NORAD_CAT_ID":64615,"ELEMENT_SET_NO":999,"REV_AT_EPOCH":4183,"BSTAR":0.00094905,"MEAN_MOTION_DOT":0.00027863,"MEAN_MOTION_DDOT":0},{"OBJECT_NAME":"STARLINK-34413","OBJECT_ID":"2025-137Y","EPOCH":"2026-03-16T21:26:45.373344","MEAN_MOTION":15.30206399,"ECCENTRICITY":0.0001033,"INCLINATION":53.1589,"RA_OF_ASC_NODE":302.072,"ARG_OF_PERICENTER":74.5827,"MEAN_ANOMALY":285.5288,"EPHEMERIS_TYPE":0,"CLASSIFICATION_TYPE":"U","NORAD_CAT_ID":64616,"ELEMENT_SET_NO":999,"REV_AT_EPOCH":4193,"BSTAR":0.00058995,"MEAN_MOTION_DOT":0.00017157,"MEAN_MOTION_DDOT":0},{"OBJECT_NAME":"STARLINK-34417","OBJECT_ID":"2025-137Z","EPOCH":"2026-03-16T19:51:51.328224","MEAN_MOTION":15.30210611,"ECCENTRICITY":0.0001347,"INCLINATION":53.1581,"RA_OF_ASC_NODE":289.3665,"ARG_OF_PERICENTER":74.7575,"MEAN_ANOMALY":285.3574,"EPHEMERIS_TYPE":0,"CLASSIFICATION_TYPE":"U","NORAD_CAT_ID":64617,"ELEMENT_SET_NO":999,"REV_AT_EPOCH":4210,"BSTAR":0.00062811,"MEAN_MOTION_DOT":0.00018296,"MEAN_MOTION_DDOT":0},{"OBJECT_NAME":"STARLINK-34415","OBJECT_ID":"2025-137AA","EPOCH":"2026-03-16T20:00:01.999008","MEAN_MOTION":15.30183056,"ECCENTRICITY":0.0001352,"INCLINATION":53.1578,"RA_OF_ASC_NODE":302.0306,"ARG_OF_PERICENTER":92.8454,"MEAN_ANOMALY":98.0905,"EPHEMERIS_TYPE":0,"CLASSIFICATION_TYPE":"U","NORAD_CAT_ID":64618,"ELEMENT_SET_NO":999,"REV_AT_EPOCH":590,"BSTAR":-9.5646e-5,"MEAN_MOTION_DOT":-3.189e-5,"MEAN_MOTION_DDOT":0},{"OBJECT_NAME":"STARLINK-34416","OBJECT_ID":"2025-137AB","EPOCH":"2026-03-16T20:39:38.678976","MEAN_MOTION":15.30207057,"ECCENTRICITY":0.0001081,"INCLINATION":53.1579,"RA_OF_ASC_NODE":301.8621,"ARG_OF_PERICENTER":95.9586,"MEAN_ANOMALY":264.1538,"EPHEMERIS_TYPE":0,"CLASSIFICATION_TYPE":"U","NORAD_CAT_ID":64619,"ELEMENT_SET_NO":999,"REV_AT_EPOCH":4183,"BSTAR":0.00061864,"MEAN_MOTION_DOT":0.00018011,"MEAN_MOTION_DDOT":0},{"OBJECT_NAME":"STARLINK-34414","OBJECT_ID":"2025-137AC","EPOCH":"2026-03-16T21:14:35.518848","MEAN_MOTION":15.30170376,"ECCENTRICITY":6.73e-5,"INCLINATION":53.1602,"RA_OF_ASC_NODE":302.0127,"ARG_OF_PERICENTER":100.371,"MEAN_ANOMALY":259.7367,"EPHEMERIS_TYPE":0,"CLASSIFICATION_TYPE":"U","NORAD_CAT_ID":64620,"ELEMENT_SET_NO":999,"REV_AT_EPOCH":4183,"BSTAR":0.00084048,"MEAN_MOTION_DOT":0.00024593,"MEAN_MOTION_DDOT":0},{"OBJECT_NAME":"STARLINK-34464","OBJECT_ID":"2025-139A","EPOCH":"2026-03-15T18:37:00.764256","MEAN_MOTION":15.30179979,"ECCENTRICITY":0.00014052,"INCLINATION":53.1589,"RA_OF_ASC_NODE":98.9314,"ARG_OF_PERICENTER":86.9123,"MEAN_ANOMALY":273.2039,"EPHEMERIS_TYPE":0,"CLASSIFICATION_TYPE":"U","NORAD_CAT_ID":64664,"ELEMENT_SET_NO":999,"REV_AT_EPOCH":4121,"BSTAR":0.00057030874,"MEAN_MOTION_DOT":0.00016559,"MEAN_MOTION_DDOT":0},{"OBJECT_NAME":"STARLINK-34555","OBJECT_ID":"2025-139B","EPOCH":"2026-03-16T18:03:15.322752","MEAN_MOTION":15.30216221,"ECCENTRICITY":0.0001805,"INCLINATION":53.1585,"RA_OF_ASC_NODE":94.3606,"ARG_OF_PERICENTER":75.6784,"MEAN_ANOMALY":284.4417,"EPHEMERIS_TYPE":0,"CLASSIFICATION_TYPE":"U","NORAD_CAT_ID":64665,"ELEMENT_SET_NO":999,"REV_AT_EPOCH":4126,"BSTAR":0.00077062,"MEAN_MOTION_DOT":0.00022545,"MEAN_MOTION_DDOT":0},{"OBJECT_NAME":"STARLINK-34390","OBJECT_ID":"2025-139C","EPOCH":"2026-03-16T18:50:12.189120","MEAN_MOTION":15.30200322,"ECCENTRICITY":0.0001088,"INCLINATION":53.1593,"RA_OF_ASC_NODE":93.8541,"ARG_OF_PERICENTER":95.0017,"MEAN_ANOMALY":265.1108,"EPHEMERIS_TYPE":0,"CLASSIFICATION_TYPE":"U","NORAD_CAT_ID":64666,"ELEMENT_SET_NO":999,"REV_AT_EPOCH":4143,"BSTAR":0.0004635,"MEAN_MOTION_DOT":0.00013393,"MEAN_MOTION_DDOT":0},{"OBJECT_NAME":"STARLINK-34382","OBJECT_ID":"2025-139D","EPOCH":"2026-03-16T18:26:02.798880","MEAN_MOTION":15.3020774,"ECCENTRICITY":0.0001527,"INCLINATION":53.1602,"RA_OF_ASC_NODE":94.4589,"ARG_OF_PERICENTER":83.2053,"MEAN_ANOMALY":276.9122,"EPHEMERIS_TYPE":0,"CLASSIFICATION_TYPE":"U","NORAD_CAT_ID":64667,"ELEMENT_SET_NO":999,"REV_AT_EPOCH":4136,"BSTAR":0.0007502,"MEAN_MOTION_DOT":0.0002193,"MEAN_MOTION_DDOT":0},{"OBJECT_NAME":"STARLINK-34395","OBJECT_ID":"2025-139E","EPOCH":"2026-03-16T18:12:22.023936","MEAN_MOTION":15.30205396,"ECCENTRICITY":0.0001515,"INCLINATION":53.1596,"RA_OF_ASC_NODE":94.3987,"ARG_OF_PERICENTER":81.1897,"MEAN_ANOMALY":278.9276,"EPHEMERIS_TYPE":0,"CLASSIFICATION_TYPE":"U","NORAD_CAT_ID":64668,"ELEMENT_SET_NO":999,"REV_AT_EPOCH":4136,"BSTAR":0.00085977,"MEAN_MOTION_DOT":0.00025195,"MEAN_MOTION_DDOT":0},{"OBJECT_NAME":"STARLINK-34394","OBJECT_ID":"2025-139F","EPOCH":"2026-03-15T18:27:53.671680","MEAN_MOTION":15.30186637,"ECCENTRICITY":0.00014256,"INCLINATION":53.1585,"RA_OF_ASC_NODE":98.892,"ARG_OF_PERICENTER":84.0496,"MEAN_ANOMALY":276.0668,"EPHEMERIS_TYPE":0,"CLASSIFICATION_TYPE":"U","NORAD_CAT_ID":64669,"ELEMENT_SET_NO":999,"REV_AT_EPOCH":4121,"BSTAR":0.00061746906,"MEAN_MOTION_DOT":0.00017965,"MEAN_MOTION_DDOT":0},{"OBJECT_NAME":"STARLINK-34287","OBJECT_ID":"2025-139G","EPOCH":"2026-03-16T20:57:40.705056","MEAN_MOTION":15.30211378,"ECCENTRICITY":0.0001194,"INCLINATION":53.1586,"RA_OF_ASC_NODE":93.6934,"ARG_OF_PERICENTER":77.4075,"MEAN_ANOMALY":282.706,"EPHEMERIS_TYPE":0,"CLASSIFICATION_TYPE":"U","NORAD_CAT_ID":64670,"ELEMENT_SET_NO":999,"REV_AT_EPOCH":4138,"BSTAR":0.00058582,"MEAN_MOTION_DOT":0.00017037,"MEAN_MOTION_DDOT":0}]
