STARLINK-34521          
1 64612U 25137U   26075.85769919  .00016229  00000+0  55874-3 0  9992
2 64612  53.1566 301.8468 0000703  76.8276 283.2803 15.30206850 41835
STARLINK-34500          
1 64613U 25137V   26075.88091877  .00016921  00000+0  58193-3 0  9993
2 64613  53.1592 301.9908 0001588  97.7315 262.3866 15.30211827 41931
STARLINK-34440          
1 64614U 25137W   26075.87352766  .00021645  00000+0  74051-3 0  9990
2 64614  53.1601 301.9437 0001124  98.2304 261.8824 15.30212672 41836
STARLINK-34469          
1 64615U 25137X   26075.84398090  .00027863  00000+0  94905-3 0  9996
2 64615  53.1570 301.7633 0000924  81.6143 278.4962 15.30209934 41836
STARLINK-34413          
1 64616U 25137Y   26075.89358071  .00017157  00000+0  58995-3 0  9991
2 64616  53.1589 302.0720 0001033  74.5827 285.5288 15.30206399 41933
STARLINK-34417          
1 64617U 25137Z   26075.82767741  .00018296  00000+0  62811-3 0  9990
2 64617  53.1581 289.3665 0001347  74.7575 285.3574 15.30210611 42109
STARLINK-34415          
1 64618U 25137AA  26075.83335647 -.00003189  00000+0 -95646-4 0  9998
2 64618  53.1578 302.0306 0001352  92.8454  98.0905 15.30183056  5900
STARLINK-34416          
1 64619U 25137AB  26075.86086434  .00018011  00000+0  61864-3 0  9991
2 64619  53.1579 301.8621 0001081  95.9586 264.1538 15.30207057 41836
STARLINK-34414          
1 64620U 25137AC  26075.88513332  .00024593  00000+0  84048-3 0  9998
2 64620  53.1602 302.0127 0000673 100.3710 259.7367 15.30170376 41838
STARLINK-34464          
1 64664U 25139A   26074.77570329  .00016559  00000+0  57031-3 0  9999
2 64664  53.1589  98.9314 0001405  86.9123 273.2039 15.30179979 41217
STARLINK-34555          
1 64665U 25139B   26075.75226068  .00022545  00000+0  77062-3 0  9995
2 64665  53.1585  94.3606 0001805  75.6784 284.4417 15.30216221 41261
STARLINK-34390          
1 64666U 25139C   26075.78486330  .00013393  00000+0  46350-3 0  9996
2 64666  53.1593  93.8541 0001088  95.0017 265.1108 15.30200322 41438
STARLINK-34382          
1 64667U 25139D   26075.76808795  .00021930  00000+0  75020-3 0  9990
2 64667  53.1602  94.4589 0001527  83.2053 276.9122 15.30207740 41365
STARLINK-34395          
1 64668U 25139E   26075.75858824  .00025195  00000+0  85977-3 0  9997
2 64668  53.1596  94.3987 0001515  81.1897 278.9276 15.30205396 41366
STARLINK-34394          
1 64669U 25139F   26074.76937120  .00017965  00000+0  61747-3 0  9990
2 64669  53.1585  98.8920 0001425  84.0496 276.0668 15.30186637 41212
STARLINK-34287          
1 64670U 25139G   26075.87338779  .00017037  00000+0  58582-3 0  9993
2 64670  53.1586  93.6934 0001194  77.4075 282.7060 15.30211378 41384
